JINJUSAT-1B             
1 63210U 25052A   26068.66363707  .00019955  00000+0  68430-3 0  9998
2 63210  97.4113 325.4613 0005550  82.1930 277.9941 15.30194857 54866
STARLINK-34471          
1 64739U 25144R   26068.58207338  .00017465  00000+0  60055-3 0  9994
2 64739  53.1592 181.6625 0001140  90.6448 269.4684 15.30191669 39633
